CCSDS_OMM_VERS = 2.0
CREATION_DATE  = 
ORIGINATOR     = 

OBJECT_NAME    = SL-3 R/B
OBJECT_ID      = 1982-079B
CENTER_NAME    = EARTH
REF_FRAME      = TEME
TIME_SYSTEM    = UTC
MEAN_ELEMENT_THEORY = SGP/SGP4

EPOCH          = 2026-04-02T06:55:40.147968
MEAN_MOTION    = 15.25115408
ECCENTRICITY   = .00255058
INCLINATION    = 81.1479
RA_OF_ASC_NODE = 165.2114
ARG_OF_PERICENTER = 87.3739
MEAN_ANOMALY   = 273.0414

EPHEMERIS_TYPE = 0
CLASSIFICATION_TYPE = U
NORAD_CAT_ID   = 13403
ELEMENT_SET_NO = 999
REV_AT_EPOCH   = 38129
BSTAR          = .29771726E-3
MEAN_MOTION_DOT = .755E-4
MEAN_MOTION_DDOT = 0

CCSDS_OMM_VERS = 2.0
CREATION_DATE  = 
ORIGINATOR     = 

OBJECT_NAME    = SL-14 R/B
OBJECT_ID      = 1982-092B
CENTER_NAME    = EARTH
REF_FRAME      = TEME
TIME_SYSTEM    = UTC
MEAN_ELEMENT_THEORY = SGP/SGP4

EPOCH          = 2026-04-02T07:49:02.789472
MEAN_MOTION    = 14.86688435
ECCENTRICITY   = .00193096
INCLINATION    = 82.5652
RA_OF_ASC_NODE = 119.2870
ARG_OF_PERICENTER = 219.2861
MEAN_ANOMALY   = 151.2571

EPHEMERIS_TYPE = 0
CLASSIFICATION_TYPE = U
NORAD_CAT_ID   = 13553
ELEMENT_SET_NO = 999
REV_AT_EPOCH   = 33244
BSTAR          = .66114333E-4
MEAN_MOTION_DOT = .614E-5
MEAN_MOTION_DDOT = 0

CCSDS_OMM_VERS = 2.0
CREATION_DATE  = 
ORIGINATOR     = 

OBJECT_NAME    = SL-3 R/B
OBJECT_ID      = 1983-010B
CENTER_NAME    = EARTH
REF_FRAME      = TEME
TIME_SYSTEM    = UTC
MEAN_ELEMENT_THEORY = SGP/SGP4

EPOCH          = 2026-04-02T02:45:14.814720
MEAN_MOTION    = 15.47149431
ECCENTRICITY   = .00155977
INCLINATION    = 81.1042
RA_OF_ASC_NODE = 333.5138
ARG_OF_PERICENTER = 330.0910
MEAN_ANOMALY   = 29.9442

EPHEMERIS_TYPE = 0
CLASSIFICATION_TYPE = U
NORAD_CAT_ID   = 13819
ELEMENT_SET_NO = 999
REV_AT_EPOCH   = 36156
BSTAR          = .31181657E-3
MEAN_MOTION_DOT = .15935E-3
MEAN_MOTION_DDOT = 0

CCSDS_OMM_VERS = 2.0
CREATION_DATE  = 
ORIGINATOR     = 

OBJECT_NAME    = SL-3 R/B
OBJECT_ID      = 1983-075B
CENTER_NAME    = EARTH
REF_FRAME      = TEME
TIME_SYSTEM    = UTC
MEAN_ELEMENT_THEORY = SGP/SGP4

EPOCH          = 2026-04-02T07:03:06.929280
MEAN_MOTION    = 15.38990133
ECCENTRICITY   = .00226756
INCLINATION    = 97.6132
RA_OF_ASC_NODE = 97.7750
ARG_OF_PERICENTER = 141.3958
MEAN_ANOMALY   = 218.8914

EPHEMERIS_TYPE = 0
CLASSIFICATION_TYPE = U
NORAD_CAT_ID   = 14208
ELEMENT_SET_NO = 999
REV_AT_EPOCH   = 33378
BSTAR          = .41442749E-3
MEAN_MOTION_DOT = .16065E-3
MEAN_MOTION_DDOT = 0

CCSDS_OMM_VERS = 2.0
CREATION_DATE  = 
ORIGINATOR     = 

OBJECT_NAME    = COSMOS 1536
OBJECT_ID      = 1984-013A
CENTER_NAME    = EARTH
REF_FRAME      = TEME
TIME_SYSTEM    = UTC
MEAN_ELEMENT_THEORY = SGP/SGP4

EPOCH          = 2026-04-02T05:25:32.436768
MEAN_MOTION    = 15.24158723
ECCENTRICITY   = .00138476
INCLINATION    = 82.5416
RA_OF_ASC_NODE = 84.4413
ARG_OF_PERICENTER = 191.8424
MEAN_ANOMALY   = 168.2490

EPHEMERIS_TYPE = 0
CLASSIFICATION_TYPE = U
NORAD_CAT_ID   = 14699
ELEMENT_SET_NO = 999
REV_AT_EPOCH   = 27620
BSTAR          = .37987185E-3
MEAN_MOTION_DOT = .93E-4
MEAN_MOTION_DDOT = 0

CCSDS_OMM_VERS = 2.0
CREATION_DATE  = 
ORIGINATOR     = 

OBJECT_NAME    = SL-14 R/B
OBJECT_ID      = 1984-027B
CENTER_NAME    = EARTH
REF_FRAME      = TEME
TIME_SYSTEM    = UTC
MEAN_ELEMENT_THEORY = SGP/SGP4

EPOCH          = 2026-04-01T15:43:14.547072
MEAN_MOTION    = 14.86001483
ECCENTRICITY   = .00165254
INCLINATION    = 82.5423
RA_OF_ASC_NODE = 223.4729
ARG_OF_PERICENTER = 256.2708
MEAN_ANOMALY   = 103.6669

EPHEMERIS_TYPE = 0
CLASSIFICATION_TYPE = U
NORAD_CAT_ID   = 14820
ELEMENT_SET_NO = 999
REV_AT_EPOCH   = 25104
BSTAR          = .73247615E-4
MEAN_MOTION_DOT = .665E-5
MEAN_MOTION_DDOT = 0

CCSDS_OMM_VERS = 2.0
CREATION_DATE  = 
ORIGINATOR     = 

OBJECT_NAME    = SL-8 R/B
OBJECT_ID      = 1985-006B
CENTER_NAME    = EARTH
REF_FRAME      = TEME
TIME_SYSTEM    = UTC
MEAN_ELEMENT_THEORY = SGP/SGP4

EPOCH          = 2026-04-02T07:22:14.655648
MEAN_MOTION    = 14.37800804
ECCENTRICITY   = .0017514
INCLINATION    = 74.0459
RA_OF_ASC_NODE = 217.6882
ARG_OF_PERICENTER = 128.4993
MEAN_ANOMALY   = 252.4569

EPHEMERIS_TYPE = 0
CLASSIFICATION_TYPE = U
NORAD_CAT_ID   = 15483
ELEMENT_SET_NO = 999
REV_AT_EPOCH   = 15742
BSTAR          = .14731927E-3
MEAN_MOTION_DOT = .418E-5
MEAN_MOTION_DDOT = 0

CCSDS_OMM_VERS = 2.0
CREATION_DATE  = 
ORIGINATOR     = 

OBJECT_NAME    = SL-12 R/B(2)
OBJECT_ID      = 1985-042D
CENTER_NAME    = EARTH
REF_FRAME      = TEME
TIME_SYSTEM    = UTC
MEAN_ELEMENT_THEORY = SGP/SGP4

EPOCH          = 2026-04-02T06:39:45.207648
MEAN_MOTION    = 14.21989389
ECCENTRICITY   = .00328242
INCLINATION    = 71.1097
RA_OF_ASC_NODE = 37.8917
ARG_OF_PERICENTER = 88.9626
MEAN_ANOMALY   = 62.5389

EPHEMERIS_TYPE = 0
CLASSIFICATION_TYPE = U
NORAD_CAT_ID   = 15772
ELEMENT_SET_NO = 999
REV_AT_EPOCH   = 11774
BSTAR          = .10385451E-3
MEAN_MOTION_DOT = .183E-5
MEAN_MOTION_DDOT = 0

CCSDS_OMM_VERS = 2.0
CREATION_DATE  = 
ORIGINATOR     = 

OBJECT_NAME    = SL-14 R/B
OBJECT_ID      = 1985-069B
CENTER_NAME    = EARTH
REF_FRAME      = TEME
TIME_SYSTEM    = UTC
MEAN_ELEMENT_THEORY = SGP/SGP4

EPOCH          = 2026-04-02T05:43:39.906912
MEAN_MOTION    = 14.86459433
ECCENTRICITY   = .00202224
INCLINATION    = 82.5305
RA_OF_ASC_NODE = 2.7959
ARG_OF_PERICENTER = 112.5198
MEAN_ANOMALY   = 247.8162

EPHEMERIS_TYPE = 0
CLASSIFICATION_TYPE = U
NORAD_CAT_ID   = 15945
ELEMENT_SET_NO = 999
REV_AT_EPOCH   = 17633
BSTAR          = .75421051E-4
MEAN_MOTION_DOT = .693E-5
MEAN_MOTION_DDOT = 0

CCSDS_OMM_VERS = 2.0
CREATION_DATE  = 
ORIGINATOR     = 

OBJECT_NAME    = SL-16 R/B
OBJECT_ID      = 1985-097B
CENTER_NAME    = EARTH
REF_FRAME      = TEME
TIME_SYSTEM    = UTC
MEAN_ELEMENT_THEORY = SGP/SGP4

EPOCH          = 2026-04-02T06:41:42.793728
MEAN_MOTION    = 14.16602955
ECCENTRICITY   = .00093077
INCLINATION    = 71.0007
RA_OF_ASC_NODE = 90.8891
ARG_OF_PERICENTER = 231.9194
MEAN_ANOMALY   = 139.2347

EPHEMERIS_TYPE = 0
CLASSIFICATION_TYPE = U
NORAD_CAT_ID   = 16182
ELEMENT_SET_NO = 999
REV_AT_EPOCH   = 9057
BSTAR          = -.66186368E-4
MEAN_MOTION_DOT = -.18E-5
MEAN_MOTION_DDOT = 0

CCSDS_OMM_VERS = 2.0
CREATION_DATE  = 
ORIGINATOR     = 

OBJECT_NAME    = SL-14 R/B
OBJECT_ID      = 1986-006B
CENTER_NAME    = EARTH
REF_FRAME      = TEME
TIME_SYSTEM    = UTC
MEAN_ELEMENT_THEORY = SGP/SGP4

EPOCH          = 2026-04-02T08:15:44.826048
MEAN_MOTION    = 14.86856902
ECCENTRICITY   = .00761465
INCLINATION    = 82.5258
RA_OF_ASC_NODE = 237.4699
ARG_OF_PERICENTER = 193.2127
MEAN_ANOMALY   = 166.7098

EPHEMERIS_TYPE = 0
CLASSIFICATION_TYPE = U
NORAD_CAT_ID   = 16496
ELEMENT_SET_NO = 999
REV_AT_EPOCH   = 15272
BSTAR          = .14459421E-3
MEAN_MOTION_DOT = .1386E-4
MEAN_MOTION_DDOT = 0

CCSDS_OMM_VERS = 2.0
CREATION_DATE  = 
ORIGINATOR     = 

OBJECT_NAME    = COSMOS 1743
OBJECT_ID      = 1986-034A
CENTER_NAME    = EARTH
REF_FRAME      = TEME
TIME_SYSTEM    = UTC
MEAN_ELEMENT_THEORY = SGP/SGP4

EPOCH          = 2026-04-02T07:39:27.053568
MEAN_MOTION    = 15.60636115
ECCENTRICITY   = .00053537
INCLINATION    = 82.5317
RA_OF_ASC_NODE = 48.9940
ARG_OF_PERICENTER = 159.9907
MEAN_ANOMALY   = 200.1561

EPHEMERIS_TYPE = 0
CLASSIFICATION_TYPE = U
NORAD_CAT_ID   = 16719
ELEMENT_SET_NO = 999
REV_AT_EPOCH   = 18393
BSTAR          = .77620759E-3
MEAN_MOTION_DOT = .6467E-3
MEAN_MOTION_DDOT = 0

